start=new Date('2021-09-15T00:00:00.000Z').valueOf();
sats=[{"REV_AT_EPOCH":"7867","DECAY_DATE":null,"RA_OF_ASC_NODE":"228.3004","MEAN_MOTION":"15.06398796","TLE_LINE1":"1 45582U 20025BD  21257.04488247  .00001183  00000-0  98294-4 0  9996","APOAPSIS":"548.214","BSTAR":"0.00009829400000","TIME_SYSTEM":"UTC","EPHEMERIS_TYPE":"0","ECCENTRICITY":"0.00014400","SEMIMAJOR_AXIS":"6925.352","SITE":"AFETR","MEAN_ANOMALY":"301.8611","COUNTRY_CODE":"US","OBJECT_ID":"2020-025BD","MEAN_MOTION_DOT":"0.00001183","GP_ID":"184694879","CLASSIFICATION_TYPE":"U","OBJECT_NAME":"STARLINK-1337","ELEMENT_SET_NO":"999","INCLINATION":"53.0544","FILE":"3115492","LAUNCH_DATE":"2020-04-22","MEAN_ELEMENT_THEORY":"SGP4","PERIOD":"95.592","OBJECT_TYPE":"PAYLOAD","EPOCH":"2021-09-14T01:04:37.845408","NORAD_CAT_ID":"45582","PERIAPSIS":"546.220","CENTER_NAME":"EARTH","MEAN_MOTION_DDOT":"0.0000000000000","REF_FRAME":"TEME","ARG_OF_PERICENTER":"58.2518","TLE_LINE2":"2 45582  53.0544 228.3004 0001440  58.2518 301.8611 15.06398796 78676","RCS_SIZE":"LARGE"},{"APOAPSIS":"548.344","TLE_LINE1":"1 45583U 20025BE  21257.29183778  .00001187  00000-0  98606-4 0  9996","TIME_SYSTEM":"UTC","BSTAR":"0.00009860600000","EPHEMERIS_TYPE":"0","ECCENTRICITY":"0.00016150","SEMIMAJOR_AXIS":"6925.361","REV_AT_EPOCH":"7871","RA_OF_ASC_NODE":"227.1889","DECAY_DATE":null,"MEAN_MOTION":"15.06396008","MEAN_MOTION_DOT":"0.00001187","GP_ID":"184694624","SITE":"AFETR","MEAN_ANOMALY":"298.7394","COUNTRY_CODE":"US","OBJECT_ID":"2020-025BE","LAUNCH_DATE":"2020-04-22","MEAN_ELEMENT_THEORY":"SGP4","PERIOD":"95.592","OBJECT_TYPE":"PAYLOAD","CLASSIFICATION_TYPE":"U","OBJECT_NAME":"STARLINK-1340","ELEMENT_SET_NO":"999","INCLINATION":"53.0532","FILE":"3115492","ARG_OF_PERICENTER":"61.3757","RCS_SIZE":"LARGE","TLE_LINE2":"2 45583  53.0532 227.1889 0001615  61.3757 298.7394 15.06396008 78717","EPOCH":"2021-09-14T07:00:14.784192","NORAD_CAT_ID":"45583","PERIAPSIS":"546.107","CENTER_NAME":"EARTH","MEAN_MOTION_DDOT":"0.0000000000000","REF_FRAME":"TEME"},{"PERIAPSIS":"546.173","NORAD_CAT_ID":"45584","EPOCH":"2021-09-14T08:19:51.501504","REF_FRAME":"TEME","MEAN_MOTION_DDOT":"0.0000000000000","CENTER_NAME":"EARTH","ARG_OF_PERICENTER":"55.9878","TLE_LINE2":"2 45584  53.0528 226.9397 0001502  55.9878 304.1253 15.06400158 78721","RCS_SIZE":"LARGE","OBJECT_NAME":"STARLINK-1343","CLASSIFICATION_TYPE":"U","FILE":"3115492","INCLINATION":"53.0528","ELEMENT_SET_NO":"999","LAUNCH_DATE":"2020-04-22","OBJECT_TYPE":"PAYLOAD","PERIOD":"95.592","MEAN_ELEMENT_THEORY":"SGP4","SITE":"AFETR","MEAN_ANOMALY":"304.1253","COUNTRY_CODE":"US","OBJECT_ID":"2020-025BF","MEAN_MOTION_DOT":"0.00001160","GP_ID":"184695861","REV_AT_EPOCH":"7872","MEAN_MOTION":"15.06400158","DECAY_DATE":null,"RA_OF_ASC_NODE":"226.9397","TIME_SYSTEM":"UTC","TLE_LINE1":"1 45584U 20025BF  21257.34712386  .00001160  00000-0  96767-4 0  9993","APOAPSIS":"548.253","BSTAR":"0.00009676700000","SEMIMAJOR_AXIS":"6925.348","EPHEMERIS_TYPE":"0","ECCENTRICITY":"0.00015020"},{"PERIOD":"95.593","OBJECT_TYPE":"PAYLOAD","MEAN_ELEMENT_THEORY":"SGP4","LAUNCH_DATE":"2020-04-22","FILE":"3115492","ELEMENT_SET_NO":"999","INCLINATION":"53.0542","CLASSIFICATION_TYPE":"U","OBJECT_NAME":"STARLINK-1345","TLE_LINE2":"2 45585  53.0542 227.1738 0001626  74.6268 285.4901 15.06393890 78712","RCS_SIZE":"LARGE","ARG_OF_PERICENTER":"74.6268","MEAN_MOTION_DDOT":"0.0000000000000","REF_FRAME":"TEME","CENTER_NAME":"EARTH","PERIAPSIS":"546.106","EPOCH":"2021-09-14T07:05:34.287072","NORAD_CAT_ID":"45585","SEMIMAJOR_AXIS":"6925.367","ECCENTRICITY":"0.00016260","EPHEMERIS_TYPE":"0","TLE_LINE1":"1 45585U 20025BG  21257.29553573 -.00000434  00000-0 -10236-4 0  9991","APOAPSIS":"548.358","BSTAR":"-0.00001023600000","TIME_SYSTEM":"UTC","MEAN_MOTION":"15.06393890","DECAY_DATE":null,"RA_OF_ASC_NODE":"227.1738","REV_AT_EPOCH":"7871","GP_ID":"184695608","MEAN_MOTION_DOT":"-0.00000434","COUNTRY_CODE":"US","MEAN_ANOMALY":"285.4901","OBJECT_ID":"2020-025BG","SITE":"AFETR"},{"GP_ID":"184694380","MEAN_MOTION_DOT":"-0.00000408","COUNTRY_CODE":"US","MEAN_ANOMALY":"292.5956","OBJECT_ID":"2020-025BH","SITE":"AFETR","SEMIMAJOR_AXIS":"6925.366","EPHEMERIS_TYPE":"0","ECCENTRICITY":"0.00017010","TLE_LINE1":"1 45586U 20025BH  21257.43560235 -.00000408  00000-0 -84570-5 0  9995","APOAPSIS":"548.409","TIME_SYSTEM":"UTC","BSTAR":"-0.00000845700000","MEAN_MOTION":"15.06394446","DECAY_DATE":null,"RA_OF_ASC_NODE":"226.5223","REV_AT_EPOCH":"7872","TLE_LINE2":"2 45586  53.0548 226.5223 0001701  67.5213 292.5956 15.06394446 78724","RCS_SIZE":"LARGE","ARG_OF_PERICENTER":"67.5213","MEAN_MOTION_DDOT":"0.0000000000000","REF_FRAME":"TEME","CENTER_NAME":"EARTH","PERIAPSIS":"546.053","EPOCH":"2021-09-14T10:27:16.043040","NORAD_CAT_ID":"45586","PERIOD":"95.592","OBJECT_TYPE":"PAYLOAD","MEAN_ELEMENT_THEORY":"SGP4","LAUNCH_DATE":"2020-04-22","FILE":"3115492","ELEMENT_SET_NO":"999","INCLINATION":"53.0548","CLASSIFICATION_TYPE":"U","OBJECT_NAME":"STARLINK-1347"},{"MEAN_MOTION":"15.06400892","RA_OF_ASC_NODE":"226.9788","DECAY_DATE":null,"REV_AT_EPOCH":"7872","SEMIMAJOR_AXIS":"6925.346","EPHEMERIS_TYPE":"0","ECCENTRICITY":"0.00015210","TLE_LINE1":"1 45587U 20025BJ  21257.33975152  .00000958  00000-0  83231-4 0  9993","APOAPSIS":"548.264","TIME_SYSTEM":"UTC","BSTAR":"0.00008323100000","MEAN_ANOMALY":"290.5803","COUNTRY_CODE":"US","OBJECT_ID":"2020-025BJ","SITE":"AFETR","GP_ID":"184695124","MEAN_MOTION_DOT":"0.00000958","FILE":"3115492","INCLINATION":"53.0552","ELEMENT_SET_NO":"999","OBJECT_NAME":"STARLINK-1349","CLASSIFICATION_TYPE":"U","OBJECT_TYPE":"PAYLOAD","PERIOD":"95.592","MEAN_ELEMENT_THEORY":"SGP4","LAUNCH_DATE":"2020-04-22","REF_FRAME":"TEME","MEAN_MOTION_DDOT":"0.0000000000000","CENTER_NAME":"EARTH","PERIAPSIS":"546.157","NORAD_CAT_ID":"45587","EPOCH":"2021-09-14T08:09:14.531328","RCS_SIZE":"LARGE","TLE_LINE2":"2 45587  53.0552 226.9788 0001521  69.5349 290.5803 15.06400892 78724","ARG_OF_PERICENTER":"69.5349"},{"INCLINATION":"53.0541","ELEMENT_SET_NO":"999","FILE":"3115492","OBJECT_NAME":"STARLINK-1360","CLASSIFICATION_TYPE":"U","MEAN_ELEMENT_THEORY":"SGP4","OBJECT_TYPE":"PAYLOAD","PERIOD":"95.592","LAUNCH_DATE":"2020-04-22","CENTER_NAME":"EARTH","REF_FRAME":"TEME","MEAN_MOTION_DDOT":"0.0000000000000","NORAD_CAT_ID":"45588","EPOCH":"2021-09-14T07:37:24.381120","PERIAPSIS":"546.272","RCS_SIZE":"LARGE","TLE_LINE2":"2 45588  53.0541 227.0759 0001371  38.9823 321.1265 15.06397376 78717","ARG_OF_PERICENTER":"38.9823","DECAY_DATE":null,"RA_OF_ASC_NODE":"227.0759","MEAN_MOTION":"15.06397376","REV_AT_EPOCH":"7871","EPHEMERIS_TYPE":"0","ECCENTRICITY":"0.00013710","SEMIMAJOR_AXIS":"6925.357","TLE_LINE1":"1 45588U 20025BK  21257.31764330 -.00000241  00000-0  27021-5 0  9998","TIME_SYSTEM":"UTC","APOAPSIS":"548.171","BSTAR":"0.00000270210000","MEAN_ANOMALY":"321.1265","COUNTRY_CODE":"US","OBJECT_ID":"2020-025BK","SITE":"AFETR","GP_ID":"184695362","MEAN_MOTION_DOT":"-0.00000241"},{"RA_OF_ASC_NODE":"227.0912","DECAY_DATE":null,"MEAN_MOTION":"15.06395235","REV_AT_EPOCH":"7871","EPHEMERIS_TYPE":"0","ECCENTRICITY":"0.00012250","SEMIMAJOR_AXIS":"6925.363","APOAPSIS":"548.077","TLE_LINE1":"1 45589U 20025BL  21257.31396018 -.00000456  00000-0 -11709-4 0  9997","TIME_SYSTEM":"UTC","BSTAR":"-0.00001170900000","COUNTRY_CODE":"US","MEAN_ANOMALY":"293.9566","OBJECT_ID":"2020-025BL","SITE":"AFETR","GP_ID":"184696108","MEAN_MOTION_DOT":"-0.00000456","ELEMENT_SET_NO":"999","INCLINATION":"53.0534","FILE":"3115492","CLASSIFICATION_TYPE":"U","OBJECT_NAME":"STARLINK-1364","MEAN_ELEMENT_THEORY":"SGP4","PERIOD":"95.592","OBJECT_TYPE":"PAYLOAD","LAUNCH_DATE":"2020-04-22","CENTER_NAME":"EARTH","MEAN_MOTION_DDOT":"0.0000000000000","REF_FRAME":"TEME","EPOCH":"2021-09-14T07:32:06.159552","NORAD_CAT_ID":"45589","PERIAPSIS":"546.380","TLE_LINE2":"2 45589  53.0534 227.0912 0001225  66.1551 293.9566 15.06395235 78712","RCS_SIZE":"LARGE","ARG_OF_PERICENTER":"66.1551"},{"INCLINATION":"53.0538","ELEMENT_SET_NO":"999","FILE":"3115492","OBJECT_NAME":"STARLINK-1365","CLASSIFICATION_TYPE":"U","MEAN_ELEMENT_THEORY":"SGP4","OBJECT_TYPE":"PAYLOAD","PERIOD":"95.593","LAUNCH_DATE":"2020-04-22","CENTER_NAME":"EARTH","REF_FRAME":"TEME","MEAN_MOTION_DDOT":"0.0000000000000","NORAD_CAT_ID":"45590","EPOCH":"2021-09-14T09:30:12.185568","PERIAPSIS":"546.656","RCS_SIZE":"LARGE","TLE_LINE2":"2 45590  53.0538 256.7214 0000834  79.3005 280.8078 15.06393543 78327","ARG_OF_PERICENTER":"79.3005","DECAY_DATE":null,"RA_OF_ASC_NODE":"256.7214","MEAN_MOTION":"15.06393543","REV_AT_EPOCH":"7832","EPHEMERIS_TYPE":"0","ECCENTRICITY":"0.00008340","SEMIMAJOR_AXIS":"6925.368","APOAPSIS":"547.811","TLE_LINE1":"1 45590U 20025BM  21257.39597437  .00000875  00000-0  77623-4 0  9995","BSTAR":"0.00007762300000","TIME_SYSTEM":"UTC","MEAN_ANOMALY":"280.8078","COUNTRY_CODE":"US","OBJECT_ID":"2020-025BM","SITE":"AFETR","GP_ID":"184694880","MEAN_MOTION_DOT":"0.00000875"},{"ARG_OF_PERICENTER":"63.5147","RCS_SIZE":"LARGE","TLE_LINE2":"2 45658  53.0524 216.8392 0001308  63.5147 296.5976 15.06400478 71959","PERIAPSIS":"546.306","EPOCH":"2021-09-14T08:53:02.296608","NORAD_CAT_ID":"45658","MEAN_MOTION_DDOT":"0.0000000000000","REF_FRAME":"TEME","CENTER_NAME":"EARTH","LAUNCH_DATE":"2020-06-04","PERIOD":"95.592","OBJECT_TYPE":"PAYLOAD","MEAN_ELEMENT_THEORY":"SGP4","CLASSIFICATION_TYPE":"U","OBJECT_NAME":"STARLINK-1441","FILE":"3115492","ELEMENT_SET_NO":"999","INCLINATION":"53.0524","MEAN_MOTION_DOT":"0.00000955","GP_ID":"184694631","SITE":"AFETR","MEAN_ANOMALY":"296.5976","COUNTRY_CODE":"US","OBJECT_ID":"2020-035B","TIME_SYSTEM":"UTC","TLE_LINE1":"1 45658U 20035B   21257.37016547  .00000955  00000-0  82973-4 0  9990","APOAPSIS":"548.118","BSTAR":"0.00008297300000","SEMIMAJOR_AXIS":"6925.347","EPHEMERIS_TYPE":"0","ECCENTRICITY":"0.00013080","REV_AT_EPOCH":"7195","MEAN_MOTION":"15.06400478","DECAY_DATE":null,"RA_OF_ASC_NODE":"216.8392"}];
